{"type": "FeatureCollection", "features": [ {"type": "Feature", "properties": {"norad_id": 34878, "name": "COSMOS 2251 DEB", "group": "cosmos-2251-debris", "lat": 45.46788305266431, "lon": -172.86674996927897, "alt_km": 1277.1596816250058, "timestamp": "2025-12-27T08:36:18.780052+00:00", "meta": {"OBJECT_NAME": "COSMOS 2251 DEB", "OBJECT_ID": "1993-036ACR", "EPOCH": "2025-12-26T20:22:34.466592", "MEAN_MOTION": 13.44209658, "ECCENTRICITY": 0.04357217, "INCLINATION": 73.9646, "RA_OF_ASC_NODE": 24.9383, "ARG_OF_PERICENTER": 5.7082, "MEAN_ANOMALY": 177.4487, "EPHEMERIS_TYPE": 0, "CLASSIFICATION_TYPE": "U", "NORAD_CAT_ID": 34878, "ELEMENT_SET_NO": 999, "REV_AT_EPOCH": 81462, "BSTAR": 0.00076012229, "MEAN_MOTION_DOT": 7.6e-06, "MEAN_MOTION_DDOT": 0}, "tle": {"line1": "1 34878U 93036ACR 25360.84901003  .00000760  00000+0  76012-3 0  9993", "line2": "2 34878  73.9646  24.9383 0435721   5.7082 177.4487 13.44209658814621"}}, "geometry": {"type": "Point", "coordinates": [-172.86674996927897, 45.46788305266431]}}, {"type": "Feature", "properties": {"norad_id": 34882, "name": "COSMOS 2251 DEB", "group": "cosmos-2251-debris", "lat": -3.403575715518942, "lon": -163.3328940685227, "alt_km": 642.8858539320463, "timestamp": "2025-12-27T08:36:18.780062+00:00", "meta": {"OBJECT_NAME": "COSMOS 2251 DEB", "OBJECT_ID": "1993-036ACV", "EPOCH": "2025-12-24T14:54:49.727232", "MEAN_MOTION": 14.61616436, "ECCENTRICITY": 0.00833525, "INCLINATION": 74.0451, "RA_OF_ASC_NODE": 202.874, "ARG_OF_PERICENTER": 327.0403, "MEAN_ANOMALY": 32.5581, "EPHEMERIS_TYPE": 0, "CLASSIFICATION_TYPE": "U", "NORAD_CAT_ID": 34882, "ELEMENT_SET_NO": 999, "REV_AT_EPOCH": 88698, "BSTAR": 0.00012189648, "MEAN_MOTION_DOT": 6.03e-06, "MEAN_MOTION_DDOT": 0}, "tle": {"line1": "1 34882U 93036ACV 25358.62140888  .00000603  00000+0  12190-3 0  9990", "line2": "2 34882  74.0451 202.8740 0083352 327.0403  32.5581 14.61616436886982"}}, "geometry": {"type": "Point", "coordinates": [-163.3328940685227, -3.403575715518942]}}, {"type": "Feature", "properties": {"norad_id": 34883, "name": "COSMOS 2251 DEB", "group": "cosmos-2251-debris", "lat": -59.095483811960285, "lon": -116.30980286626338, "alt_km": 665.579476472105, "timestamp": "2025-12-27T08:36:18.780072+00:00", "meta": {"OBJECT_NAME": "COSMOS 2251 DEB", "OBJECT_ID": "1993-036ACW", "EPOCH": "2025-12-25T12:29:30.541632", "MEAN_MOTION": 14.51859717, "ECCENTRICITY": 0.0094459, "INCLINATION": 74.2013, "RA_OF_ASC_NODE": 38.8875, "ARG_OF_PERICENTER": 221.5013, "MEAN_ANOMALY": 137.8952, "EPHEMERIS_TYPE": 0, "CLASSIFICATION_TYPE": "U", "NORAD_CAT_ID": 34883, "ELEMENT_SET_NO": 999, "REV_AT_EPOCH": 86625, "BSTAR": 0.0033923, "MEAN_MOTION_DOT": 0.00014484, "MEAN_MOTION_DDOT": 0}, "tle": {"line1": "1 34883U 93036ACW 25359.52049238  .00014484  00000+0  33923-2 0  9996", "line2": "2 34883  74.2013  38.8875 0094459 221.5013 137.8952 14.51859717866259"}}, "geometry": {"type": "Point", "coordinates": [-116.30980286626338, -59.095483811960285]}}, {"type": "Feature", "properties": {"norad_id": 34884, "name": "COSMOS 2251 DEB", "group": "cosmos-2251-debris", "lat": 47.79773157610674, "lon": 45.86308367055127, "alt_km": 588.9555785563107, "timestamp": "2025-12-27T08:36:18.780082+00:00", "meta": {"OBJECT_NAME": "COSMOS 2251 DEB", "OBJECT_ID": "1993-036ACX", "EPOCH": "2025-12-27T03:50:22.965792", "MEAN_MOTION": 14.90723446, "ECCENTRICITY": 0.0003309, "INCLINATION": 74.0174, "RA_OF_ASC_NODE": 27.8361, "ARG_OF_PERICENTER": 25.8166, "MEAN_ANOMALY": 39.4832, "EPHEMERIS_TYPE": 0, "CLASSIFICATION_TYPE": "U", "NORAD_CAT_ID": 34884, "ELEMENT_SET_NO": 999, "REV_AT_EPOCH": 88020, "BSTAR": 0.0030019, "MEAN_MOTION_DOT": 0.00029575, "MEAN_MOTION_DDOT": 0}, "tle": {"line1": "1 34884U 93036ACX 25361.15998803  .00029575  00000+0  30019-2 0  9990", "line2": "2 34884  74.0174  27.8361 0003309  25.8166  39.4832 14.90723446880209"}}, "geometry": {"type": "Point", "coordinates": [45.86308367055127, 47.79773157610674]}}, {"type": "Feature", "properties": {"norad_id": 34885, "name": "COSMOS 2251 DEB", "group": "cosmos-2251-debris", "lat": 50.94258307552555, "lon": 176.16068862540902, "alt_km": 726.0360320091613, "timestamp": "2025-12-27T08:36:18.780093+00:00", "meta": {"OBJECT_NAME": "COSMOS 2251 DEB", "OBJECT_ID": "1993-036ACY", "EPOCH": "2025-12-26T19:39:25.285824", "MEAN_MOTION": 14.51580434, "ECCENTRICITY": 0.0015043, "INCLINATION": 74.0299, "RA_OF_ASC_NODE": 156.5108, "ARG_OF_PERICENTER": 241.9315, "MEAN_ANOMALY": 233.8299, "EPHEMERIS_TYPE": 0, "CLASSIFICATION_TYPE": "U", "NORAD_CAT_ID": 34885, "ELEMENT_SET_NO": 999, "REV_AT_EPOCH": 87683, "BSTAR": 0.0008541283, "MEAN_MOTION_DOT": 3.399e-05, "MEAN_MOTION_DDOT": 0}, "tle": {"line1": "1 34885U 93036ACY 25360.81904266  .00003399  00000+0  85413-3 0  9998", "line2": "2 34885  74.0299 156.5108 0015043 241.9315 233.8299 14.51580434876838"}}, "geometry": {"type": "Point", "coordinates": [176.16068862540902, 50.94258307552555]}}, {"type": "Feature", "properties": {"norad_id": 34886, "name": "COSMOS 2251 DEB", "group": "cosmos-2251-debris", "lat": 73.7690830679678, "lon": -129.30660869784657, "alt_km": 446.60462229227414, "timestamp": "2025-12-27T08:36:18.780103+00:00", "meta": {"OBJECT_NAME": "COSMOS 2251 DEB", "OBJECT_ID": "1993-036ACZ", "EPOCH": "2025-12-26T18:12:01.173888", "MEAN_MOTION": 15.40542585, "ECCENTRICITY": 0.00320594, "INCLINATION": 73.9515, "RA_OF_ASC_NODE": 150.562, "ARG_OF_PERICENTER": 332.3272, "MEAN_ANOMALY": 27.6228, "EPHEMERIS_TYPE": 0, "CLASSIFICATION_TYPE": "U", "NORAD_CAT_ID": 34886, "ELEMENT_SET_NO": 999, "REV_AT_EPOCH": 63214, "BSTAR": 0.0018575938, "MEAN_MOTION_DOT": 0.00077584, "MEAN_MOTION_DDOT": 0}, "tle": {"line1": "1 34886U 93036ACZ 25360.75834692  .00077584  00000+0  18576-2 0  9999", "line2": "2 34886  73.9515 150.5620 0032059 332.3272  27.6228 15.40542585632143"}}, "geometry": {"type": "Point", "coordinates": [-129.30660869784657, 73.7690830679678]}}, {"type": "Feature", "properties": {"norad_id": 34907, "name": "COSMOS 2251 DEB", "group": "cosmos-2251-debris", "lat": 5.566469009057196, "lon": -165.37627732835898, "alt_km": 408.90594332810633, "timestamp": "2025-12-27T08:36:18.780113+00:00", "meta": {"OBJECT_NAME": "COSMOS 2251 DEB", "OBJECT_ID": "1993-036ADC", "EPOCH": "2025-12-26T00:59:09.943584", "MEAN_MOTION": 15.54798885, "ECCENTRICITY": 0.00149707, "INCLINATION": 73.9657, "RA_OF_ASC_NODE": 19.1552, "ARG_OF_PERICENTER": 322.4289, "MEAN_ANOMALY": 37.5879, "EPHEMERIS_TYPE": 0, "CLASSIFICATION_TYPE": "U", "NORAD_CAT_ID": 34907, "ELEMENT_SET_NO": 999, "REV_AT_EPOCH": 88179, "BSTAR": 0.0076188915, "MEAN_MOTION_DOT": 0.0054544, "MEAN_MOTION_DDOT": 0}, "tle": {"line1": "1 34907U 93036ADC 25360.04108731  .00545440  00000+0  76189-2 0  9998", "line2": "2 34907  73.9657  19.1552 0014970 322.4289  37.5879 15.54798885881798"}}, "geometry": {"type": "Point", "coordinates": [-165.37627732835898, 5.566469009057196]}}, {"type": "Feature", "properties": {"norad_id": 34908, "name": "COSMOS 2251 DEB", "group": "cosmos-2251-debris", "lat": 73.72954023707331, "lon": 98.45499703091161, "alt_km": 756.700453231103, "timestamp": "2025-12-27T08:36:18.780123+00:00", "meta": {"OBJECT_NAME": "COSMOS 2251 DEB", "OBJECT_ID": "1993-036ADD", "EPOCH": "2025-12-24T10:43:39.700992", "MEAN_MOTION": 14.37433526, "ECCENTRICITY": 0.00406595, "INCLINATION": 74.0579, "RA_OF_ASC_NODE": 2.1423, "ARG_OF_PERICENTER": 14.7235, "MEAN_ANOMALY": 137.436, "EPHEMERIS_TYPE": 0, "CLASSIFICATION_TYPE": "U", "NORAD_CAT_ID": 34908, "ELEMENT_SET_NO": 999, "REV_AT_EPOCH": 87447, "BSTAR": 0.0005476007, "MEAN_MOTION_DOT": 1.627e-05, "MEAN_MOTION_DDOT": 0}, "tle": {"line1": "1 34908U 93036ADD 25358.44698728  .00001627  00000+0  54760-3 0  9996", "line2": "2 34908  74.0579   2.1423 0040659  14.7235 137.4360 14.37433526874478"}}, "geometry": {"type": "Point", "coordinates": [98.45499703091161, 73.72954023707331]}}, {"type": "Feature", "properties": {"norad_id": 34909, "name": "COSMOS 2251 DEB", "group": "cosmos-2251-debris", "lat": -14.262168899257937, "lon": -127.99063361838536, "alt_km": 583.3394308761863, "timestamp": "2025-12-27T08:36:18.780133+00:00", "meta": {"OBJECT_NAME": "COSMOS 2251 DEB", "OBJECT_ID": "1993-036ADE", "EPOCH": "2025-12-25T19:59:15.179712", "MEAN_MOTION": 14.7793658, "ECCENTRICITY": 0.00836064, "INCLINATION": 74.014, "RA_OF_ASC_NODE": 50.8291, "ARG_OF_PERICENTER": 183.5214, "MEAN_ANOMALY": 176.5384, "EPHEMERIS_TYPE": 0, "CLASSIFICATION_TYPE": "U", "NORAD_CAT_ID": 34909, "ELEMENT_SET_NO": 999, "REV_AT_EPOCH": 67045, "BSTAR": 0.0004989948, "MEAN_MOTION_DOT": 3.776e-05, "MEAN_MOTION_DDOT": 0}, "tle": {"line1": "1 34909U 93036ADE 25359.83281458  .00003776  00000+0  49899-3 0  9993", "line2": "2 34909  74.0140  50.8291 0083606 183.5214 176.5384 14.77936580670451"}}, "geometry": {"type": "Point", "coordinates": [-127.99063361838536, -14.262168899257937]}}, {"type": "Feature", "properties": {"norad_id": 34910, "name": "COSMOS 2251 DEB", "group": "cosmos-2251-debris", "lat": -16.063346951893056, "lon": 73.57770990869614, "alt_km": 1416.1943086811516, "timestamp": "2025-12-27T08:36:18.780143+00:00", "meta": {"OBJECT_NAME": "COSMOS 2251 DEB", "OBJECT_ID": "1993-036ADF", "EPOCH": "2025-12-26T22:31:54.181056", "MEAN_MOTION": 13.37716569, "ECCENTRICITY": 0.0467609, "INCLINATION": 73.8764, "RA_OF_ASC_NODE": 79.0174, "ARG_OF_PERICENTER": 195.6498, "MEAN_ANOMALY": 284.2366, "EPHEMERIS_TYPE": 0, "CLASSIFICATION_TYPE": "U", "NORAD_CAT_ID": 34910, "ELEMENT_SET_NO": 999, "REV_AT_EPOCH": 81714, "BSTAR": 0.0012684, "MEAN_MOTION_DOT": 1.233e-05, "MEAN_MOTION_DDOT": 0}, "tle": {"line1": "1 34910U 93036ADF 25360.93882154  .00001233  00000+0  12684-2 0  9995", "line2": "2 34910  73.8764  79.0174 0467609 195.6498 284.2366 13.37716569817146"}}, "geometry": {"type": "Point", "coordinates": [73.57770990869614, -16.063346951893056]}}]}